sat05118
1 05118U 71028B   20046.85041363  .00000188  00000-0  85787-5 0  9992
2 05118  81.2561 117.1115 0045979 252.4932 107.1269 15.14499992651267
